[{"OBJECT_NAME":"HST","OBJECT_ID":"1990-037B","EPOCH":"2026-03-09T03:50:04.164288","MEAN_MOTION":15.29473555,"ECCENTRICITY":0.00018372,"INCLINATION":28.4717,"RA_OF_ASC_NODE":43.6133,"ARG_OF_PERICENTER":120.9992,"MEAN_ANOMALY":239.0785,"EPHEMERIS_TYPE":0,"CLASSIFICATION_TYPE":"U","NORAD_CAT_ID":20580,"ELEMENT_SET_NO":999,"REV_AT_EPOCH":77323,"BSTAR":0.0003002261,"MEAN_MOTION_DOT":9.063e-5,"MEAN_MOTION_DDOT":0},{"OBJECT_NAME":"STARLINK-35385","OBJECT_ID":"2025-224AA","EPOCH":"2026-03-09T05:15:28.942272","MEAN_MOTION":15.30183882,"ECCENTRICITY":9.069e-5,"INCLINATION":53.1605,"RA_OF_ASC_NODE":13.4269,"ARG_OF_PERICENTER":116.6777,"MEAN_ANOMALY":243.4317,"EPHEMERIS_TYPE":0,"CLASSIFICATION_TYPE":"U","NORAD_CAT_ID":65906,"ELEMENT_SET_NO":999,"REV_AT_EPOCH":2478,"BSTAR":0.0010647588,"MEAN_MOTION_DOT":0.00031293,"MEAN_MOTION_DDOT":0}]
